DMSP 5D-3 F16 (USA 172)
1 28054U 03048A   25275.11607323  .00000371  00000+0  21741-3 0  9996
2 28054  99.0118 291.9806 0007709 150.6939 296.7855 14.14386014133001
METEOSAT-9 (MSG-2)
1 28912U 05049B   25275.00778078  .00000132  00000+0  00000+0 0  9992
2 28912   8.7683  56.6336 0002301 183.7997 179.0819  1.00269528  4423
DMSP 5D-3 F17 (USA 191)
1 29522U 06050A   25275.13518326  .00000456  00000+0  25862-3 0  9991
2 29522  98.7421 282.0019 0011210  74.8216 285.4197 14.14873090975923
FENGYUN 3A
1 32958U 08026A   25275.07054399  .00000323  00000+0  17390-3 0  9991
2 32958  98.6565 216.1530 0009257 145.3533 214.8248 14.19479944898784
GOES 14
1 35491U 09033A   25275.09011553 -.00000065  00000+0  00000+0 0  9992
2 35491   1.0068  86.3223 0003851 110.7123  98.0763  1.00270828  4000
DMSP 5D-3 F18 (USA 210)
1 35951U 09057A   25275.15342127  .00000548  00000+0  30782-3 0  9999
2 35951  98.8737 251.9439 0009911 265.1518  94.8524 14.14710616823105
EWS-G2 (GOES 15)
1 36411U 10008A   25275.15360331  .00000039  00000+0  00000+0 0  9997
2 36411   0.6228  85.5079 0005346 140.4472 261.8405  1.00272934 57050
COMS 1
1 36744U 10032A   25274.95274720 -.00000341  00000+0  00000+0 0  9993
2 36744   4.1601  78.7233 0000738 113.1638 290.1885  1.00269595 48506
FENGYUN 3B
1 37214U 10059A   25275.24781463  .00000399  00000+0  23035-3 0  9994
2 37214  99.0024 314.6826 0021869 195.0275 240.1910 14.14761850770950
SUOMI NPP
1 37849U 11061A   25275.15071483  .00000284  00000+0  15544-3 0  9995
2 37849  98.7645 213.1789 0001741  33.1365 326.9920 14.19524344721836
METEOSAT-10 (MSG-3)
1 38552U 12035B   25275.10600441  .00000001  00000+0  00000+0 0  9990
2 38552   4.0543  61.8572 0000291 188.5102 159.2815  1.00277656 48262
METOP-B
1 38771U 12049A   25275.13242738  .00000319  00000+0  16615-3 0  9997
2 38771  98.6915 326.2633 0002661  35.7082 324.4273 14.21369579676608
INSAT-3D
1 39216U 13038B   25274.95300720 -.00000337  00000+0  00000+0 0  9994
2 39216   1.2522  85.9265 0001575 125.2256 272.4194  1.00273908 44491
FENGYUN 3C
1 39260U 13052A   25275.21920635  .00000488  00000+0  26987-3 0  9994
2 39260  98.4674 256.4171 0015639  49.0557 311.1969 14.15663256622065
METEOR-M 2
1 40069U 14037A   25275.22716439  .00000634  00000+0  30985-3 0  9999
2 40069  98.4812 255.5807 0006913  69.9992 290.1929 14.21344536582671
HIMAWARI-8
1 40267U 14060A   25275.16920338 -.00000275  00000+0  00000+0 0  9996
2 40267   0.0166 194.8090 0001162  11.4736   6.4342  1.00270359 40164
FENGYUN 2G
1 40367U 14090A   25275.01844083 -.00000298  00000+0  00000+0 0  9991
2 40367   4.9808  75.9434 0003446 177.4113 223.9368  1.00272587 39416
METEOSAT-11 (MSG-4)
1 40732U 15034A   25275.14328993  .00000067  00000+0  00000+0 0  9990
2 40732   2.5527  72.1706 0000754 156.8041 203.2001  1.00278633  4623
ELEKTRO-L 2
1 41105U 15074A   25275.11155934 -.00000112  00000+0  00000+0 0  9991
2 41105   6.0384  73.6889 0002659 173.5228 149.5059  1.00270599 35919
INSAT-3DR
1 41752U 16054A   25272.44425838 -.00000074  00000+0  00000+0 0  9991
2 41752   0.0859  87.9841 0012322 175.4170 339.0109  1.00272020 33202
HIMAWARI-9
1 41836U 16064A   25273.74204694 -.00000271  00000+0  00000+0 0  9993
2 41836   0.0088 119.4986 0001515  97.0110 201.1537  1.00278046 32606
GOES 16
1 41866U 16071A   25273.55068608 -.00000089  00000+0  00000+0 0  9993
2 41866   0.1022  77.3358 0002301 136.2712 249.5092  1.00272246 32508
FENGYUN 4A
1 41882U 16077A   25275.17725953 -.00000355  00000+0  00000+0 0  9996
2 41882   1.6606  83.0299 0005468 157.6513 318.0049  1.00277966 32341
CYGFM05
1 41884U 16078A   25275.05100080  .00032765  00000+0  69632-3 0  9993
2 41884  34.9593 154.1058 0010366 244.1383 115.8269 15.43937384488666
CYGFM04
1 41885U 16078B   25274.92401063  .00035948  00000+0  70726-3 0  9996
2 41885  34.9346 131.5177 0009687 268.3993  91.5618 15.46179019488803
CYGFM02
1 41886U 16078C   25274.92487601  .00038135  00000+0  71847-3 0  9995
2 41886  34.9432 130.8207 0011030 264.7104  95.2359 15.47402648488929
CYGFM01
1 41887U 16078D   25275.07172494  .00134084  00000+0  27582-2 0  9990
2 41887  34.9404 156.8512 0009958 232.7216 127.2596 15.44485947488605
CYGFM08
1 41888U 16078E   25274.91958434  .00034333  00000+0  69209-3 0  9998
2 41888  34.9454 141.5827 0011560 254.9734 104.9707 15.45459923488808
CYGFM07
1 41890U 16078G   25274.94762645  .00034651  00000+0  68287-3 0  9999
2 41890  34.9473 130.7635 0010020 273.4431  86.5143 15.46134508488820
CYGFM03
1 41891U 16078H   25274.97218001  .00034463  00000+0  68629-3 0  9996
2 41891  34.9424 132.4705 0008847 261.4927  98.4792 15.45844441488808
FENGYUN 3D
1 43010U 17072A   25275.20270214  .00000328  00000+0  17679-3 0  9999
2 43010  98.9765 240.4818 0002532  73.4142 286.7312 14.19650630408381
NOAA 20 (JPSS-1)
1 43013U 17073A   25275.09492149  .00000255  00000+0  14176-3 0  9991
2 43013  98.7472 212.2183 0000870  29.9559 330.1666 14.19567383407859
GOES 17
1 43226U 18022A   25275.05231927 -.00000182  00000+0  00000+0 0  9990
2 43226   0.2677  91.4617 0002494 152.0061  56.9174  1.00271772 27832
FENGYUN 2H
1 43491U 18050A   25275.12316689 -.00000124  00000+0  00000+0 0  9998
2 43491   2.3603  82.1244 0002866 134.1456 278.2300  1.00268184 26857
METOP-C
1 43689U 18087A   25275.16648843  .00000344  00000+0  17720-3 0  9995
2 43689  98.7036 333.9932 0001509 145.3199 214.8077 14.21500927358178
GEO-KOMPSAT-2A
1 43823U 18100A   25272.88325387 -.00000341  00000+0  00000+0 0  9999
2 43823   0.0467  24.6017 0001699  99.1133 331.4268  1.00272031 25022
METEOR-M2 2
1 44387U 19038A   25275.22132169  .00000592  00000+0  27646-3 0  9997
2 44387  98.8887 254.1018 0002198  62.2048 297.9353 14.24247493324578
ARKTIKA-M 1
1 47719U 21016A   25266.32659031 -.00000078  00000+0  00000+0 0  9992
2 47719  63.1696  94.8597 7159970 268.8502  16.1065  2.00628734 33436
FENGYUN 3E
1 49008U 21062A   25275.14880473  .00000114  00000+0  74407-4 0  9999
2 49008  98.7476 276.5116 0002685 102.1763 257.9714 14.19865531219968
GOES 18
1 51850U 22021A   25275.14851089  .00000097  00000+0  00000+0 0  9997
2 51850   0.0516  30.0520 0000377 212.0186  45.5312  1.00271578  4005
NOAA 21 (JPSS-2)
1 54234U 22150A   25275.13098372  .00000292  00000+0  15940-3 0  9996
2 54234  98.7336 212.3730 0001407 161.4943 198.6284 14.19566753149935
METEOSAT-12 (MTG-I1)
1 54743U 22170C   25275.14138325 -.00000007  00000+0  00000+0 0  9999
2 54743   0.6772  27.5165 0001767 124.0565 270.0455  1.00271458 10391
TIANMU-1 03
1 55973U 23039A   25275.19209492  .00048416  00000+0  12881-2 0  9997
2 55973  97.5103  76.0115 0002907 321.2973  38.8063 15.38064063141056
TIANMU-1 04
1 55974U 23039B   25275.18582898  .00027128  00000+0  71849-3 0  9998
2 55974  97.5033  75.2290 0003597 313.3056  46.7889 15.38328685141051
TIANMU-1 05
1 55975U 23039C   25275.22901745  .00043936  00000+0  11710-2 0  9995
2 55975  97.5080  75.7586 0002993 348.2145  11.9029 15.38032178141040
TIANMU-1 06
1 55976U 23039D   25275.19076573  .00049164  00000+0  12930-2 0  9998
2 55976  97.5092  76.1283 0003281 340.1371  19.9746 15.38414604141059
FENGYUN 3G
1 56232U 23055A   25275.18688391  .00113057  00000+0  17569-2 0  9994
2 56232  49.9934 236.4728 0008728 207.1774 152.8737 15.52994688139905
METEOR-M2 3
1 57166U 23091A   25275.16318773  .00000084  00000+0  55482-4 0  9996
2 57166  98.6491 329.9110 0003791 184.0191 176.0958 14.24013284117793
TIANMU-1 07
1 57399U 23101A   25275.18279645  .00024598  00000+0  93948-3 0  9996
2 57399  97.2993 326.6409 0003414 356.0240   4.0971 15.26618164122237
TIANMU-1 08
1 57400U 23101B   25275.14913671  .00015006  00000+0  57509-3 0  9996
2 57400  97.2983 326.4183 0005412 351.7462   8.3687 15.26599075122223
TIANMU-1 09
1 57401U 23101C   25275.20169720  .00026266  00000+0  10033-2 0  9992
2 57401  97.2941 326.0235 0004654 354.0735   6.0448 15.26596442122234
TIANMU-1 10
1 57402U 23101D   25275.16988282  .00027140  00000+0  10366-2 0  9991
2 57402  97.3019 326.7668 0006393 348.6188  11.4905 15.26581688122225
FENGYUN 3F
1 57490U 23111A   25275.20665376  .00000388  00000+0  20367-3 0  9998
2 57490  98.7167 344.6252 0001515 100.1471 259.9876 14.19867089112257
ARKTIKA-M 2
1 58584U 23198A   25273.05302128  .00000143  00000+0  00000+0 0  9999
2 58584  63.2269 182.9022 6863775 268.4071  18.7501  2.00603125 13100
TIANMU-1 11
1 58645U 23205A   25275.17784191  .00020546  00000+0  86425-3 0  9993
2 58645  97.3691 296.0893 0009396 183.0230 177.0952 15.23382698 98191
TIANMU-1 12
1 58646U 23205B   25275.19990815  .00023276  00000+0  98211-3 0  9997
2 58646  97.3678 295.9396 0008199 165.3232 194.8244 15.23262009 98181
TIANMU-1 13
1 58647U 23205C   25275.23382309  .00022150  00000+0  93467-3 0  9994
2 58647  97.3706 296.1462 0009059 147.8564 212.3227 15.23262918 98186
TIANMU-1 14
1 58648U 23205D   25275.15090729  .00013059  00000+0  55318-3 0  9999
2 58648  97.3636 295.4800 0009739 153.0739 207.1005 15.23240135 98177
TIANMU-1 19
1 58660U 23208A   25275.24737020  .00034117  00000+0  13244-2 0  9997
2 58660  97.4348  26.5469 0006347 141.1602 219.0093 15.25996079 97912
TIANMU-1 20
1 58661U 23208B   25275.15879528  .00018158  00000+0  68264-3 0  9998
2 58661  97.4283  26.8363 0008554 152.8926 207.2761 15.27177769 97962
TIANMU-1 21
1 58662U 23208C   25275.20264108  .00040678  00000+0  14221-2 0  9992
2 58662  97.4331  28.4862 0008050 149.4009 210.7702 15.29398815 98058
TIANMU-1 22
1 58663U 23208D   25275.23845046  .00028212  00000+0  11010-2 0  9995
2 58663  97.4341  26.6233 0004578 158.9728 201.1699 15.25869066 97927
TIANMU-1 15
1 58700U 24004A   25275.21798019  .00024562  00000+0  10344-2 0  9990
2 58700  97.4673  96.9973 0006591 170.3600 189.7764 15.23326449 96454
TIANMU-1 16
1 58701U 24004B   25275.19935373  .00024024  00000+0  10106-2 0  9993
2 58701  97.4610  96.4344 0006774 176.7060 183.4222 15.23370419 96452
TIANMU-1 17
1 58702U 24004C   25275.18004005  .00023375  00000+0  98570-3 0  9992
2 58702  97.4646  96.8016 0005838 165.8390 194.3011 15.23297967 96449
TIANMU-1 18
1 58703U 24004D   25275.16415456  .00012880  00000+0  54386-3 0  9993
2 58703  97.4664  96.9625 0005626 162.5150 197.6281 15.23383895 96441
INSAT-3DS
1 58990U 24033A   25275.08637943 -.00000155  00000+0  00000+0 0  9994
2 58990   0.0162 108.9818 0001484  79.7230 295.5510  1.00271917 44487
METEOR-M2 4
1 59051U 24039A   25275.16547925  .00000147  00000+0  85523-4 0  9996
2 59051  98.6635 233.2408 0006708 187.8312 172.2762 14.22384470 82587
GOES 19
1 60133U 24119A   25275.12656318 -.00000248  00000+0  00000+0 0  9996
2 60133   0.0107   8.8361 0000463 253.0390  79.6187  1.00272265  4371
FENGYUN 3H
1 65815U 25219A   25271.26217231  .00000065  00000+0  46093-4 0  9991
2 65815  98.6417 212.5285 0009274 245.7702 114.2509 14.25569310   217
